start=new Date('2022-11-26T00:00:00.000Z').valueOf();
sats=[{"ECCENTRICITY":"0.00013050","PERIAPSIS":"546.331","DECAY_DATE":null,"GP_ID":"218819390","MEAN_MOTION":"15.06393197","NORAD_CAT_ID":"48463","INCLINATION":"53.0529","MEAN_ANOMALY":"273.1217","BSTAR":"0.00015363000000","RA_OF_ASC_NODE":"177.9653","MEAN_ELEMENT_THEORY":"SGP4","FILE":"3670141","TLE_LINE2":"2 48463  53.0529 177.9653 0001305  86.9921 273.1217 15.06393197 85654","ELEMENT_SET_NO":"999","TLE_LINE1":"1 48463U 21040AM  22329.84000269  .00002007  00000-0  15363-3 0  9999","COUNTRY_CODE":"US","SEMIMAJOR_AXIS":"6925.369","APOAPSIS":"548.138","CENTER_NAME":"EARTH","OBJECT_TYPE":"PAYLOAD","EPOCH":"2022-11-25T20:09:36.232416","ARG_OF_PERICENTER":"86.9921","CLASSIFICATION_TYPE":"U","SITE":"AFETR","EPHEMERIS_TYPE":"0","OBJECT_ID":"2021-040AM","MEAN_MOTION_DDOT":"0.0000000000000","OBJECT_NAME":"STARLINK-2689","REF_FRAME":"TEME","MEAN_MOTION_DOT":"0.00002007","LAUNCH_DATE":"2021-05-09","PERIOD":"95.593","REV_AT_EPOCH":"8565","TIME_SYSTEM":"UTC","RCS_SIZE":"LARGE"},{"MEAN_MOTION_DOT":"0.00000043","LAUNCH_DATE":"2021-05-09","PERIOD":"95.592","MEAN_MOTION_DDOT":"0.0000000000000","OBJECT_NAME":"STARLINK-2686","REF_FRAME":"TEME","RCS_SIZE":"MEDIUM","REV_AT_EPOCH":"8564","TIME_SYSTEM":"UTC","CENTER_NAME":"EARTH","ARG_OF_PERICENTER":"70.0726","CLASSIFICATION_TYPE":"U","SITE":"AFETR","EPHEMERIS_TYPE":"0","OBJECT_ID":"2021-040AN","OBJECT_TYPE":"PAYLOAD","EPOCH":"2022-11-25T19:39:06.864480","TLE_LINE2":"2 48464  53.0532 178.0570 0001586  70.0726 290.0433 15.06395309 85641","TLE_LINE1":"1 48464U 21040AN  22329.81882945  .00000043  00000-0  21804-4 0  9992","ELEMENT_SET_NO":"999","COUNTRY_CODE":"US","BSTAR":"0.00002180400000","RA_OF_ASC_NODE":"178.0570","MEAN_ELEMENT_THEORY":"SGP4","FILE":"3670141","SEMIMAJOR_AXIS":"6925.363","APOAPSIS":"548.326","DECAY_DATE":null,"GP_ID":"218819640","ECCENTRICITY":"0.00015860","PERIAPSIS":"546.130","NORAD_CAT_ID":"48464","INCLINATION":"53.0532","MEAN_ANOMALY":"290.0433","MEAN_MOTION":"15.06395309"},{"SEMIMAJOR_AXIS":"6925.381","APOAPSIS":"548.426","TLE_LINE2":"2 48465  53.0537 177.9921 0001703  64.6483 295.4682 15.06389376 85658","TLE_LINE1":"1 48465U 21040AP  22329.82989180  .00001809  00000-0  14034-3 0  9990","ELEMENT_SET_NO":"999","COUNTRY_CODE":"US","RA_OF_ASC_NODE":"177.9921","BSTAR":"0.00014034000000","MEAN_ELEMENT_THEORY":"SGP4","FILE":"3670141","NORAD_CAT_ID":"48465","INCLINATION":"53.0537","MEAN_ANOMALY":"295.4682","MEAN_MOTION":"15.06389376","DECAY_DATE":null,"GP_ID":"218820384","ECCENTRICITY":"0.00017030","PERIAPSIS":"546.067","RCS_SIZE":"LARGE","REV_AT_EPOCH":"8565","TIME_SYSTEM":"UTC","MEAN_MOTION_DOT":"0.00001809","LAUNCH_DATE":"2021-05-09","PERIOD":"95.593","OBJECT_NAME":"STARLINK-2681","MEAN_MOTION_DDOT":"0.0000000000000","REF_FRAME":"TEME","ARG_OF_PERICENTER":"64.6483","CLASSIFICATION_TYPE":"U","SITE":"AFETR","EPHEMERIS_TYPE":"0","OBJECT_ID":"2021-040AP","OBJECT_TYPE":"PAYLOAD","EPOCH":"2022-11-25T19:55:02.651520","CENTER_NAME":"EARTH"},{"ECCENTRICITY":"0.00018580","PERIAPSIS":"545.938","GP_ID":"218820633","DECAY_DATE":null,"MEAN_MOTION":"15.06396317","NORAD_CAT_ID":"48466","INCLINATION":"53.0539","MEAN_ANOMALY":"300.5272","BSTAR":"0.00005077700000","RA_OF_ASC_NODE":"177.7703","MEAN_ELEMENT_THEORY":"SGP4","FILE":"3670141","TLE_LINE2":"2 48466  53.0539 177.7703 0001858  59.5900 300.5272 15.06396317 85662","ELEMENT_SET_NO":"999","TLE_LINE1":"1 48466U 21040AQ  22329.88149106  .00000475  00000-0  50777-4 0  9996","COUNTRY_CODE":"US","SEMIMAJOR_AXIS":"6925.360","APOAPSIS":"548.512","CENTER_NAME":"EARTH","EPOCH":"2022-11-25T21:09:20.827584","OBJECT_TYPE":"PAYLOAD","CLASSIFICATION_TYPE":"U","ARG_OF_PERICENTER":"59.5900","OBJECT_ID":"2021-040AQ","SITE":"AFETR","EPHEMERIS_TYPE":"0","OBJECT_NAME":"STARLINK-2687","MEAN_MOTION_DDOT":"0.0000000000000","REF_FRAME":"TEME","MEAN_MOTION_DOT":"0.00000475","LAUNCH_DATE":"2021-05-09","PERIOD":"95.592","REV_AT_EPOCH":"8566","TIME_SYSTEM":"UTC","RCS_SIZE":"LARGE"},{"CENTER_NAME":"EARTH","SITE":"AFETR","EPHEMERIS_TYPE":"0","OBJECT_ID":"2021-040AR","ARG_OF_PERICENTER":"66.9740","CLASSIFICATION_TYPE":"U","OBJECT_TYPE":"PAYLOAD","EPOCH":"2022-11-25T20:10:57.590976","PERIOD":"95.592","MEAN_MOTION_DOT":"0.00001888","LAUNCH_DATE":"2021-05-09","REF_FRAME":"TEME","OBJECT_NAME":"STARLINK-2659","MEAN_MOTION_DDOT":"0.0000000000000","RCS_SIZE":"LARGE","TIME_SYSTEM":"UTC","REV_AT_EPOCH":"8565","DECAY_DATE":null,"GP_ID":"218818891","PERIAPSIS":"546.103","ECCENTRICITY":"0.00015980","MEAN_ANOMALY":"293.1418","NORAD_CAT_ID":"48467","INCLINATION":"53.0551","MEAN_MOTION":"15.06401195","COUNTRY_CODE":"US","TLE_LINE2":"2 48467  53.0551 177.9626 0001598  66.9740 293.1418 15.06401195 85657","ELEMENT_SET_NO":"999","TLE_LINE1":"1 48467U 21040AR  22329.84094434  .00001888  00000-0  14558-3 0  9991","MEAN_ELEMENT_THEORY":"SGP4","FILE":"3670141","BSTAR":"0.00014558000000","RA_OF_ASC_NODE":"177.9626","APOAPSIS":"548.317","SEMIMAJOR_AXIS":"6925.345"},{"FILE":"3670141","MEAN_ELEMENT_THEORY":"SGP4","BSTAR":"0.00011320000000","RA_OF_ASC_NODE":"177.7489","COUNTRY_CODE":"US","TLE_LINE1":"1 48468U 21040AS  22329.88886465  .00001404  00000-0  11320-3 0  9997","TLE_LINE2":"2 48468  53.0546 177.7489 0001576  65.2740 294.8413 15.06388272 85669","ELEMENT_SET_NO":"999","APOAPSIS":"548.341","SEMIMAJOR_AXIS":"6925.385","PERIAPSIS":"546.158","ECCENTRICITY":"0.00015760","GP_ID":"218819141","DECAY_DATE":null,"MEAN_MOTION":"15.06388272","MEAN_ANOMALY":"294.8413","NORAD_CAT_ID":"48468","INCLINATION":"53.0546","REF_FRAME":"TEME","OBJECT_NAME":"STARLINK-2685","MEAN_MOTION_DDOT":"0.0000000000000","PERIOD":"95.593","MEAN_MOTION_DOT":"0.00001404","LAUNCH_DATE":"2021-05-09","TIME_SYSTEM":"UTC","REV_AT_EPOCH":"8566","RCS_SIZE":"LARGE","CENTER_NAME":"EARTH","EPOCH":"2022-11-25T21:19:57.905760","OBJECT_TYPE":"PAYLOAD","OBJECT_ID":"2021-040AS","EPHEMERIS_TYPE":"0","SITE":"AFETR","CLASSIFICATION_TYPE":"U","ARG_OF_PERICENTER":"65.2740"},{"CENTER_NAME":"EARTH","EPOCH":"2022-11-25T20:05:39.578496","OBJECT_TYPE":"PAYLOAD","CLASSIFICATION_TYPE":"U","ARG_OF_PERICENTER":"75.2762","OBJECT_ID":"2021-040AT","SITE":"AFETR","EPHEMERIS_TYPE":"0","MEAN_MOTION_DDOT":"0.0000000000000","OBJECT_NAME":"STARLINK-2661","REF_FRAME":"TEME","MEAN_MOTION_DOT":"0.00001707","LAUNCH_DATE":"2021-05-09","PERIOD":"95.593","REV_AT_EPOCH":"8565","TIME_SYSTEM":"UTC","RCS_SIZE":"LARGE","ECCENTRICITY":"0.00012910","PERIAPSIS":"546.347","GP_ID":"218819885","DECAY_DATE":null,"MEAN_MOTION":"15.06390965","NORAD_CAT_ID":"48469","INCLINATION":"53.0530","MEAN_ANOMALY":"284.8370","BSTAR":"0.00013351000000","RA_OF_ASC_NODE":"177.9586","MEAN_ELEMENT_THEORY":"SGP4","FILE":"3670141","TLE_LINE2":"2 48469  53.0530 177.9586 0001291  75.2762 284.8370 15.06390965 85654","TLE_LINE1":"1 48469U 21040AT  22329.83726364  .00001707  00000-0  13351-3 0  9996","ELEMENT_SET_NO":"999","COUNTRY_CODE":"US","SEMIMAJOR_AXIS":"6925.376","APOAPSIS":"548.135"},{"COUNTRY_CODE":"US","TLE_LINE2":"2 48470  53.0553 177.9849 0001898  51.6175 308.4984 15.06398380 85644","TLE_LINE1":"1 48470U 21040AU  22329.83261779 -.00000066  00000-0  14494-4 0  9990","ELEMENT_SET_NO":"999","MEAN_ELEMENT_THEORY":"SGP4","FILE":"3670141","BSTAR":"0.00001449400000","RA_OF_ASC_NODE":"177.9849","APOAPSIS":"548.533","SEMIMAJOR_AXIS":"6925.354","GP_ID":"218820134","DECAY_DATE":null,"PERIAPSIS":"545.904","ECCENTRICITY":"0.00018980","MEAN_ANOMALY":"308.4984","NORAD_CAT_ID":"48470","INCLINATION":"53.0553","MEAN_MOTION":"15.06398380","PERIOD":"95.592","LAUNCH_DATE":"2021-05-09","MEAN_MOTION_DOT":"-0.00000066","REF_FRAME":"TEME","OBJECT_NAME":"STARLINK-2675","MEAN_MOTION_DDOT":"0.0000000000000","RCS_SIZE":"LARGE","TIME_SYSTEM":"UTC","REV_AT_EPOCH":"8564","CENTER_NAME":"EARTH","OBJECT_ID":"2021-040AU","SITE":"AFETR","EPHEMERIS_TYPE":"0","CLASSIFICATION_TYPE":"U","ARG_OF_PERICENTER":"51.6175","EPOCH":"2022-11-25T19:58:58.177056","OBJECT_TYPE":"PAYLOAD"},{"SEMIMAJOR_AXIS":"6925.373","APOAPSIS":"548.402","BSTAR":"0.00003501800000","RA_OF_ASC_NODE":"178.0077","FILE":"3670141","MEAN_ELEMENT_THEORY":"SGP4","TLE_LINE1":"1 48471U 21040AV  22329.82620032  .00000240  00000-0  35018-4 0  9999","TLE_LINE2":"2 48471  53.0536 178.0077 0001681  69.0806 291.0362 15.06392022 85649","ELEMENT_SET_NO":"999","COUNTRY_CODE":"US","MEAN_MOTION":"15.06392022","NORAD_CAT_ID":"48471","INCLINATION":"53.0536","MEAN_ANOMALY":"291.0362","ECCENTRICITY":"0.00016810","PERIAPSIS":"546.074","DECAY_DATE":null,"GP_ID":"218819391","REV_AT_EPOCH":"8564","TIME_SYSTEM":"UTC","RCS_SIZE":"LARGE","OBJECT_NAME":"STARLINK-2684","MEAN_MOTION_DDOT":"0.0000000000000","REF_FRAME":"TEME","LAUNCH_DATE":"2021-05-09","MEAN_MOTION_DOT":"0.00000240","PERIOD":"95.593","OBJECT_TYPE":"PAYLOAD","EPOCH":"2022-11-25T19:49:43.707648","ARG_OF_PERICENTER":"69.0806","CLASSIFICATION_TYPE":"U","SITE":"AFETR","EPHEMERIS_TYPE":"0","OBJECT_ID":"2021-040AV","CENTER_NAME":"EARTH"},{"OBJECT_TYPE":"PAYLOAD","EPOCH":"2022-11-25T19:23:11.234688","ARG_OF_PERICENTER":"59.6690","CLASSIFICATION_TYPE":"U","SITE":"AFETR","EPHEMERIS_TYPE":"0","OBJECT_ID":"2021-040AW","CENTER_NAME":"EARTH","REV_AT_EPOCH":"8563","TIME_SYSTEM":"UTC","RCS_SIZE":"LARGE","OBJECT_NAME":"STARLINK-2722","MEAN_MOTION_DDOT":"0.0000000000000","REF_FRAME":"TEME","LAUNCH_DATE":"2021-05-09","MEAN_MOTION_DOT":"0.00002048","PERIOD":"95.592","MEAN_MOTION":"15.06396872","NORAD_CAT_ID":"48472","INCLINATION":"53.0542","MEAN_ANOMALY":"300.4468","ECCENTRICITY":"0.00017130","PERIAPSIS":"546.037","DECAY_DATE":null,"GP_ID":"218819641","SEMIMAJOR_AXIS":"6925.358","APOAPSIS":"548.409","BSTAR":"0.00015637000000","RA_OF_ASC_NODE":"178.1077","FILE":"3670141","MEAN_ELEMENT_THEORY":"SGP4","TLE_LINE1":"1 48472U 21040AW  22329.80776892  .00002048  00000-0  15637-3 0  9996","TLE_LINE2":"2 48472  53.0542 178.1077 0001713  59.6690 300.4468 15.06396872 85638","ELEMENT_SET_NO":"999","COUNTRY_CODE":"US"}];
